[{"OBJECT_NAME":"STARLINK-1090","OBJECT_ID":"2020-001BG","EPOCH":"2026-03-10T00:00:02.999808","MEAN_MOTION":15.20362352,"ECCENTRICITY":0.00018062,"INCLINATION":53.1145,"RA_OF_ASC_NODE":304.836,"ARG_OF_PERICENTER":72.8896,"MEAN_ANOMALY":4.5449,"EPHEMERIS_TYPE":0,"CLASSIFICATION_TYPE":"U","NORAD_CAT_ID":44968,"ELEMENT_SET_NO":999,"REV_AT_EPOCH":574,"BSTAR":0.056176285,"MEAN_MOTION_DOT":0.01344146,"MEAN_MOTION_DDOT":0},{"OBJECT_NAME":"OBJECT C","OBJECT_ID":"2024-105C","EPOCH":"2026-03-09T23:58:12.857088","MEAN_MOTION":15.19285938,"ECCENTRICITY":0.00116684,"INCLINATION":97.5862,"RA_OF_ASC_NODE":85.5433,"ARG_OF_PERICENTER":201.9597,"MEAN_ANOMALY":158.1139,"EPHEMERIS_TYPE":0,"CLASSIFICATION_TYPE":"U","NORAD_CAT_ID":59919,"ELEMENT_SET_NO":999,"REV_AT_EPOCH":9810,"BSTAR":0.00030616598,"MEAN_MOTION_DOT":6.401e-5,"MEAN_MOTION_DDOT":0}]
